NORAD_CAT_ID,OBJECT_NAME,OBJECT_TYPE,EPOCH,MEAN_MOTION,ECCENTRICITY,INCLINATION,RA_OF_ASC_NODE,ARG_OF_PERICENTER,MEAN_ANOMALY,BSTAR,MEAN_MOTION_DOT,MEAN_MOTION_DDOT,TLE_LINE0,TLE_LINE1,TLE_LINE2,SEMIMAJOR_AXIS,PERIOD,APOGEE,PERIGEE,DECAYED
52860.0,STARLINK-4191,PAYLOAD,2023-02-17 12:56:58,15.08840522,8.2e-05,53.2165,354.7216,86.7855,273.3231,0.00042054,6.412e-05,0.0,0 STARLINK-4191,1 52860U 22062AG  23048.53956136  .00006412  00000-0  42054-3 0  9999,2 52860  53.2165 354.7216 0000820  86.7855 273.3231 15.08840522 37918,6917.879,95.438,540.311,539.177,0.0
52860.0,STARLINK-4191,PAYLOAD,2023-02-17 20:53:55,15.08767112,0.0001171,53.2167,353.2314,100.7018,259.4106,5.7987e-05,6.34e-06,0.0,0 STARLINK-4191,1 52860U 22062AG  23048.87078043  .00000634  00000-0  57987-4 0  9990,2 52860  53.2167 353.2314 0001171 100.7018 259.4106 15.08767112 37471,6918.103,95.442,540.778,539.158,0.0
52860.0,STARLINK-4191,PAYLOAD,2023-02-18 01:40:05,15.08773098,9.12e-05,53.217,352.3403,92.5202,267.5894,0.00074921,0.00011634,0.0,0 STARLINK-4191,1 52860U 22062AG  23049.06950871  .00011634  00000-0  74921-3 0  9998,2 52860  53.2170 352.3403 0000912  92.5202 267.5894 15.08773098 37990,6918.085,95.442,540.581,539.319,0.0
52860.0,STARLINK-4191,PAYLOAD,2023-02-18 12:47:48,15.0880793,0.0001035,53.2174,350.2592,98.6404,261.4706,0.0020219,0.00032009,0.0,0 STARLINK-4191,1 52860U 22062AG  23049.53320243  .00032009  00000-0  20219-2 0  9993,2 52860  53.2174 350.2592 0001035  98.6404 261.4706 15.08807930 37570,6917.978,95.44,540.559,539.127,0.0
52860.0,STARLINK-4191,PAYLOAD,2023-02-18 22:20:07,15.08865173,6.76e-05,53.2159,348.4733,70.7187,289.3878,0.0030785,0.00049081,0.0,0 STARLINK-4191,1 52860U 22062AG  23049.93063884  .00049081  00000-0  30785-2 0  9999,2 52860  53.2159 348.4733 0000676  70.7187 289.3878 15.08865173 38122,6917.803,95.436,540.136,539.201,0.0
52860.0,STARLINK-4191,PAYLOAD,2023-02-19 06:17:02,15.08895957,5.62e-05,53.2168,346.9865,108.8038,251.3015,0.0030497,0.00048658,0.0,0 STARLINK-4191,1 52860U 22062AG  23050.26182945  .00048658  00000-0  30497-2 0  9996,2 52860  53.2168 346.9865 0000562 108.8038 251.3015 15.08895957 37688,6917.709,95.434,539.963,539.186,0.0
52860.0,STARLINK-4191,PAYLOAD,2023-02-19 23:46:16,15.08870809,0.000104,53.2155,343.716,99.9276,260.1834,0.002574,0.0004095,0.0,0 STARLINK-4191,1 52860U 22062AG  23050.99046871  .00040950  00000-0  25740-2 0  9995,2 52860  53.2155 343.7160 0001040  99.9276 260.1834 15.08870809 38286,6917.786,95.436,540.371,538.932,0.0
52860.0,STARLINK-4191,PAYLOAD,2023-02-20 04:32:25,15.0886854,0.0001091,53.2158,342.8242,89.0228,271.0889,0.0015927,0.00025171,0.0,0 STARLINK-4191,1 52860U 22062AG  23051.18918617  .00025171  00000-0  15927-2 0  9997,2 52860  53.2158 342.8242 0001091  89.0228 271.0889 15.08868540 38317,6917.793,95.436,540.413,538.903,0.0
52860.0,STARLINK-4191,PAYLOAD,2023-02-20 12:29:21,15.08835035,0.00021,53.2153,341.3368,91.8452,268.2781,0.0022582,0.0003583,0.0,0 STARLINK-4191,1 52860U 22062AG  23051.52039187  .00035830  00000-0  22582-2 0  9999,2 52860  53.2153 341.3368 0002100  91.8452 268.2781 15.08835035 38364,6917.896,95.438,541.213,538.308,0.0
52860.0,STARLINK-4191,PAYLOAD,2023-02-20 23:37:03,15.08840553,9.85e-05,53.2157,339.2559,80.3569,279.7534,0.0012763,0.00020083,0.0,0 STARLINK-4191,1 52860U 22062AG  23051.98407116  .00020083  00000-0  12763-2 0  9994,2 52860  53.2157 339.2559 0000985  80.3569 279.7534 15.08840553 38439,6917.879,95.438,540.425,539.062,0.0
52860.0,STARLINK-4191,PAYLOAD,2023-02-21 12:20:08,15.08860365,9.77e-05,53.2159,336.8758,78.0465,282.0636,0.0011812,0.00018571,0.0,0 STARLINK-4191,1 52860U 22062AG  23052.51398823  .00018571  00000-0  11812-2 0  9991,2 52860  53.2159 336.8758 0000977  78.0465 282.0636 15.08860365 38023,6917.818,95.436,540.359,539.007,0.0
52860.0,STARLINK-4191,PAYLOAD,2023-02-22 01:03:13,15.08871879,0.0001277,53.2154,334.4955,85.9411,274.1727,0.0012824,0.00020198,0.0,0 STARLINK-4191,1 52860U 22062AG  23053.04390137  .00020198  00000-0  12824-2 0  9992,2 52860  53.2154 334.4955 0001277  85.9411 274.1727 15.08871879 38590,6917.783,95.436,540.531,538.765,0.0
52860.0,STARLINK-4191,PAYLOAD,2023-02-22 04:13:58,15.08879016,0.0001315,53.2156,333.9002,87.6886,272.4257,0.0011933,0.00018775,0.0,0 STARLINK-4191,1 52860U 22062AG  23053.17637722  .00018775  00000-0  11933-2 0  9998,2 52860  53.2156 333.9002 0001315  87.6886 272.4257 15.08879016 38126,6917.761,95.435,540.536,538.716,0.0
52860.0,STARLINK-4191,PAYLOAD,2023-02-22 21:43:14,15.08835578,9.87e-05,53.2162,330.6308,100.6035,259.5069,0.00030195,4.52e-05,0.0,0 STARLINK-4191,1 52860U 22062AG  23053.90502858  .00004520  00000-0  30195-3 0  9995,2 52860  53.2162 330.6308 0000987 100.6035 259.5069 15.08835578 38236,6917.894,95.438,540.442,539.076,0.0
52860.0,STARLINK-4191,PAYLOAD,2023-02-23 07:15:34,15.08823839,0.0001265,53.2167,328.8471,99.5917,260.5218,0.00033827,5.097e-05,0.0,0 STARLINK-4191,1 52860U 22062AG  23054.30247740  .00005097  00000-0  33827-3 0  9991,2 52860  53.2167 328.8471 0001265  99.5917 260.5218 15.08823839 38781,6917.93,95.439,540.67,538.92,0.0
52860.0,STARLINK-4191,PAYLOAD,2023-02-23 08:50:57,15.08833288,0.0001195,53.2161,328.55,98.7189,261.3939,0.00027387,4.073e-05,0.0,0 STARLINK-4191,1 52860U 22062AG  23054.36871607  .00004073  00000-0  27387-3 0  9999,2 52860  53.2161 328.5500 0001195  98.7189 261.3939 15.08833288 38305,6917.901,95.438,540.593,538.939,0.0
52860.0,STARLINK-4191,PAYLOAD,2023-02-24 00:44:48,15.08871032,0.0001101,53.2157,325.5773,98.234,261.8777,0.0017032,0.00026945,0.0,0 STARLINK-4191,1 52860U 22062AG  23055.03111302  .00026945  00000-0  17032-2 0  9990,2 52860  53.2157 325.5773 0001101  98.2340 261.8777 15.08871032 38898,6917.786,95.436,540.412,538.889,0.0
52860.0,STARLINK-4191,PAYLOAD,2023-02-24 03:55:34,15.08884679,0.0001138,53.2161,324.9826,98.7049,261.4072,0.0017866,0.00028295,0.0,0 STARLINK-4191,1 52860U 22062AG  23055.16358820  .00028295  00000-0  17866-2 0  9997,2 52860  53.2161 324.9826 0001138  98.7049 261.4072 15.08884679 38420,6917.744,95.435,540.396,538.822,0.0
52860.0,STARLINK-4191,PAYLOAD,2023-02-24 18:14:02,15.08860888,0.0001132,53.216,322.306,90.9538,269.1584,0.0012013,0.00018893,0.0,0 STARLINK-4191,1 52860U 22062AG  23055.75975017  .00018893  00000-0  12013-2 0  9997,2 52860  53.2160 322.3060 0001132  90.9538 269.1584 15.08860888 38511,6917.817,95.436,540.465,538.898,0.0
52860.0,STARLINK-4191,PAYLOAD,2023-02-25 00:35:34,15.08844886,0.0001091,53.2157,321.1161,81.8802,278.2314,0.0011589,0.00018206,0.0,0 STARLINK-4191,1 52860U 22062AG  23056.02470992  .00018206  00000-0  11589-2 0  9995,2 52860  53.2157 321.1161 0001091  81.8802 278.2314 15.08844886 39044,6917.865,95.437,540.485,538.976,0.0
52860.0,STARLINK-4191,PAYLOAD,2023-02-25 03:46:21,15.08849665,0.000115,53.2157,320.5211,78.7341,281.378,0.0016921,0.00026751,0.0,0 STARLINK-4191,1 52860U 22062AG  23056.15719012  .00026751  00000-0  16921-2 0  9997,2 52860  53.2157 320.5211 0001150  78.7341 281.3780 15.08849665 38571,6917.851,95.437,540.511,538.92,0.0
52860.0,STARLINK-4191,PAYLOAD,2023-02-25 21:15:37,15.0882681,0.000124,53.2159,317.2461,89.2018,270.9116,0.0013259,0.00020869,0.0,0 STARLINK-4191,1 52860U 22062AG  23056.88584536  .00020869  00000-0  13259-2 0  9993,2 52860  53.2159 317.2461 0001240  89.2018 270.9116 15.08826810 38687,6917.921,95.438,540.644,538.928,0.0
52860.0,STARLINK-4191,PAYLOAD,2023-02-26 02:01:46,15.08833991,0.0001125,53.2157,316.3576,84.07,276.042,0.0015193,0.0002397,0.0,0 STARLINK-4191,1 52860U 22062AG  23057.08456744  .00023970  00000-0  15193-2 0  9990,2 52860  53.2157 316.3576 0001125  84.0700 276.0420 15.08833991 39207,6917.899,95.438,540.542,538.985,0.0
52860.0,STARLINK-4191,PAYLOAD,2023-02-26 19:31:00,15.08871776,9.73e-05,53.2137,313.0844,82.3712,277.739,0.0016237,0.0002567,0.0,0 STARLINK-4191,1 52860U 22062AG  23057.81319964  .00025670  00000-0  16237-2 0  9992,2 52860  53.2137 313.0844 0000973  82.3712 277.7390 15.08871776 38825,6917.783,95.436,540.321,538.975,0.0
52860.0,STARLINK-4191,PAYLOAD,2023-02-27 03:27:55,15.08895384,0.0001003,53.2136,311.5981,85.8657,274.2449,0.0018042,0.00028586,0.0,0 STARLINK-4191,1 52860U 22062AG  23058.14438783  .00028586  00000-0  18042-2 0  9995,2 52860  53.2136 311.5981 0001003  85.8657 274.2449 15.08895384 39368,6917.711,95.434,540.27,538.882,0.0
52860.0,STARLINK-4191,PAYLOAD,2023-02-28 01:43:18,15.0890074,0.0005211,53.2139,307.4349,66.2112,293.9426,0.0020032,0.00031797,0.0,0 STARLINK-4191,1 52860U 22062AG  23059.07174549  .00031797  00000-0  20032-2 0  9995,2 52860  53.2139 307.4349 0005211  66.2112 293.9426 15.08900740 39509,6917.695,95.434,543.165,535.955,0.0
52860.0,STARLINK-4191,PAYLOAD,2023-02-28 22:23:22,15.08767399,0.0001442,53.2167,303.5688,76.4856,283.6297,0.00040696,6.182e-05,0.0,0 STARLINK-4191,1 52860U 22062AG  23059.93289796  .00006182  00000-0  40696-3 0  9990,2 52860  53.2167 303.5688 0001442  76.4856 283.6297 15.08767399 39146,6918.102,95.442,540.965,538.97,0.0
52860.0,STARLINK-4191,PAYLOAD,2023-03-01 22:14:10,15.08830865,0.0001332,53.216,299.1084,67.4607,292.6526,0.0029629,0.0004717,0.0,0 STARLINK-4191,1 52860U 22062AG  23060.92650918  .00047170  00000-0  29629-2 0  9993,2 52860  53.2160 299.1084 0001332  67.4607 292.6526 15.08830865 39291,6917.908,95.438,540.695,538.852,0.0
52860.0,STARLINK-4191,PAYLOAD,2023-03-02 01:24:55,15.0884222,0.000154,53.2156,298.5124,78.5208,281.5957,0.002023,0.00032057,0.0,0 STARLINK-4191,1 52860U 22062AG  23061.05898146  .00032057  00000-0  20230-2 0  9992,2 52860  53.2156 298.5124 0001540  78.5208 281.5957 15.08842220 39805,6917.874,95.437,540.804,538.673,0.0
52860.0,STARLINK-4191,PAYLOAD,2023-03-02 06:11:05,15.08856415,0.0001518,53.2151,297.6207,72.4455,287.6703,0.0021623,0.00034308,0.0,0 STARLINK-4191,1 52860U 22062AG  23061.25769953  .00034308  00000-0  21623-2 0  9995,2 52860  53.2151 297.6207 0001518  72.4455 287.6703 15.08856415 39340,6917.83,95.437,540.745,538.645,0.0
